[{"OBJECT_NAME":"TIANMU-1 10","OBJECT_ID":"2023-101D","EPOCH":"2026-04-25T22:36:49.440960","MEAN_MOTION":15.29319097,"ECCENTRICITY":0.00029341,"INCLINATION":97.2667,"RA_OF_ASC_NODE":168.0375,"ARG_OF_PERICENTER":341.5221,"MEAN_ANOMALY":18.5912,"EPHEMERIS_TYPE":0,"CLASSIFICATION_TYPE":"U","NORAD_CAT_ID":57402,"ELEMENT_SET_NO":999,"REV_AT_EPOCH":15365,"BSTAR":0.00026979035,"MEAN_MOTION_DOT":7.6e-5,"MEAN_MOTION_DDOT":0},{"OBJECT_NAME":"FENGYUN 3F","OBJECT_ID":"2023-111A","EPOCH":"2026-04-25T21:36:16.697664","MEAN_MOTION":14.19929497,"ECCENTRICITY":8.914e-5,"INCLINATION":98.6861,"RA_OF_ASC_NODE":186.8774,"ARG_OF_PERICENTER":112.9797,"MEAN_ANOMALY":247.1474,"EPHEMERIS_TYPE":0,"CLASSIFICATION_TYPE":"U","NORAD_CAT_ID":57490,"ELEMENT_SET_NO":999,"REV_AT_EPOCH":14144,"BSTAR":3.5192976e-5,"MEAN_MOTION_DOT":3.1e-7,"MEAN_MOTION_DDOT":0},{"OBJECT_NAME":"ARKTIKA-M 2","OBJECT_ID":"2023-198A","EPOCH":"2026-04-20T22:18:36.192384","MEAN_MOTION":2.00586979,"ECCENTRICITY":0.69533035,"INCLINATION":63.2192,"RA_OF_ASC_NODE":160.7194,"ARG_OF_PERICENTER":267.0904,"MEAN_ANOMALY":18.471,"EPHEMERIS_TYPE":0,"CLASSIFICATION_TYPE":"U","NORAD_CAT_ID":58584,"ELEMENT_SET_NO":999,"REV_AT_EPOCH":1717,"BSTAR":0,"MEAN_MOTION_DOT":2.17e-6,"MEAN_MOTION_DDOT":0},{"OBJECT_NAME":"TIANMU-1 11","OBJECT_ID":"2023-205A","EPOCH":"2026-04-25T22:44:02.046624","MEAN_MOTION":15.26442198,"ECCENTRICITY":0.00090588,"INCLINATION":97.3491,"RA_OF_ASC_NODE":138.3375,"ARG_OF_PERICENTER":176.7807,"MEAN_ANOMALY":183.3492,"EPHEMERIS_TYPE":0,"CLASSIFICATION_TYPE":"U","NORAD_CAT_ID":58645,"ELEMENT_SET_NO":999,"REV_AT_EPOCH":12955,"BSTAR":0.00024793898,"MEAN_MOTION_DOT":6.395e-5,"MEAN_MOTION_DDOT":0},{"OBJECT_NAME":"TIANMU-1 12","OBJECT_ID":"2023-205B","EPOCH":"2026-04-25T23:33:34.083936","MEAN_MOTION":15.2638821,"ECCENTRICITY":0.00079117,"INCLINATION":97.3478,"RA_OF_ASC_NODE":138.1383,"ARG_OF_PERICENTER":158.4398,"MEAN_ANOMALY":201.7176,"EPHEMERIS_TYPE":0,"CLASSIFICATION_TYPE":"U","NORAD_CAT_ID":58646,"ELEMENT_SET_NO":999,"REV_AT_EPOCH":12954,"BSTAR":0.00025270056,"MEAN_MOTION_DOT":6.507e-5,"MEAN_MOTION_DDOT":0},{"OBJECT_NAME":"TIANMU-1 13","OBJECT_ID":"2023-205C","EPOCH":"2026-04-26T00:15:45.953856","MEAN_MOTION":15.26442139,"ECCENTRICITY":0.00087588,"INCLINATION":97.3507,"RA_OF_ASC_NODE":138.4268,"ARG_OF_PERICENTER":142.5287,"MEAN_ANOMALY":217.6564,"EPHEMERIS_TYPE":0,"CLASSIFICATION_TYPE":"U","NORAD_CAT_ID":58647,"ELEMENT_SET_NO":999,"REV_AT_EPOCH":12954,"BSTAR":0.00027214544,"MEAN_MOTION_DOT":7.027e-5,"MEAN_MOTION_DDOT":0},{"OBJECT_NAME":"TIANMU-1 14","OBJECT_ID":"2023-205D","EPOCH":"2026-04-25T22:20:19.201056","MEAN_MOTION":15.26412704,"ECCENTRICITY":0.00093642,"INCLINATION":97.3442,"RA_OF_ASC_NODE":137.5742,"ARG_OF_PERICENTER":147.4453,"MEAN_ANOMALY":212.7365,"EPHEMERIS_TYPE":0,"CLASSIFICATION_TYPE":"U","NORAD_CAT_ID":58648,"ELEMENT_SET_NO":999,"REV_AT_EPOCH":12953,"BSTAR":0.00026569961,"MEAN_MOTION_DOT":6.853e-5,"MEAN_MOTION_DDOT":0},{"OBJECT_NAME":"TIANMU-1 19","OBJECT_ID":"2023-208A","EPOCH":"2026-04-25T22:33:23.312160","MEAN_MOTION":15.30740125,"ECCENTRICITY":0.00062656,"INCLINATION":97.4436,"RA_OF_ASC_NODE":232.0252,"ARG_OF_PERICENTER":133.2108,"MEAN_ANOMALY":226.9657,"EPHEMERIS_TYPE":0,"CLASSIFICATION_TYPE":"U","NORAD_CAT_ID":58660,"ELEMENT_SET_NO":999,"REV_AT_EPOCH":12933,"BSTAR":0.00035151943,"MEAN_MOTION_DOT":0.00010376,"MEAN_MOTION_DDOT":0},{"OBJECT_NAME":"TIANMU-1 20","OBJECT_ID":"2023-208B","EPOCH":"2026-04-25T22:52:13.075968","MEAN_MOTION":15.31928596,"ECCENTRICITY":0.00082656,"INCLINATION":97.4377,"RA_OF_ASC_NODE":232.6198,"ARG_OF_PERICENTER":142.581,"MEAN_ANOMALY":217.6009,"EPHEMERIS_TYPE":0,"CLASSIFICATION_TYPE":"U","NORAD_CAT_ID":58661,"ELEMENT_SET_NO":999,"REV_AT_EPOCH":12942,"BSTAR":0.00034126827,"MEAN_MOTION_DOT":0.00010456,"MEAN_MOTION_DDOT":0},{"OBJECT_NAME":"TIANMU-1 21","OBJECT_ID":"2023-208C","EPOCH":"2026-04-25T22:51:11.324160","MEAN_MOTION":15.34094429,"ECCENTRICITY":0.00082631,"INCLINATION":97.4434,"RA_OF_ASC_NODE":235.0804,"ARG_OF_PERICENTER":137.5787,"MEAN_ANOMALY":222.6095,"EPHEMERIS_TYPE":0,"CLASSIFICATION_TYPE":"U","NORAD_CAT_ID":58662,"ELEMENT_SET_NO":999,"REV_AT_EPOCH":12955,"BSTAR":0.00037569159,"MEAN_MOTION_DOT":0.00012334,"MEAN_MOTION_DDOT":0},{"OBJECT_NAME":"TIANMU-1 22","OBJECT_ID":"2023-208D","EPOCH":"2026-04-25T21:43:17.641920","MEAN_MOTION":15.30284417,"ECCENTRICITY":0.00046239,"INCLINATION":97.4431,"RA_OF_ASC_NODE":231.968,"ARG_OF_PERICENTER":149.335,"MEAN_ANOMALY":210.8161,"EPHEMERIS_TYPE":0,"CLASSIFICATION_TYPE":"U","NORAD_CAT_ID":58663,"ELEMENT_SET_NO":999,"REV_AT_EPOCH":12933,"BSTAR":0.00030140256,"MEAN_MOTION_DOT":8.757e-5,"MEAN_MOTION_DDOT":0},{"OBJECT_NAME":"TIANMU-1 15","OBJECT_ID":"2024-004A","EPOCH":"2026-04-25T22:16:01.864704","MEAN_MOTION":15.26451792,"ECCENTRICITY":0.0007547,"INCLINATION":97.4682,"RA_OF_ASC_NODE":302.1272,"ARG_OF_PERICENTER":161.7251,"MEAN_ANOMALY":198.426,"EPHEMERIS_TYPE":0,"CLASSIFICATION_TYPE":"U","NORAD_CAT_ID":58700,"ELEMENT_SET_NO":999,"REV_AT_EPOCH":12780,"BSTAR":0.00027801471,"MEAN_MOTION_DOT":7.178e-5,"MEAN_MOTION_DDOT":0},{"OBJECT_NAME":"TIANMU-1 16","OBJECT_ID":"2024-004B","EPOCH":"2026-04-25T23:25:00.653664","MEAN_MOTION":15.26490318,"ECCENTRICITY":0.0005924,"INCLINATION":97.4626,"RA_OF_ASC_NODE":301.4655,"ARG_OF_PERICENTER":161.3712,"MEAN_ANOMALY":198.7745,"EPHEMERIS_TYPE":0,"CLASSIFICATION_TYPE":"U","NORAD_CAT_ID":58701,"ELEMENT_SET_NO":999,"REV_AT_EPOCH":12781,"BSTAR":0.00026314567,"MEAN_MOTION_DOT":6.796e-5,"MEAN_MOTION_DDOT":0},{"OBJECT_NAME":"TIANMU-1 17","OBJECT_ID":"2024-004C","EPOCH":"2026-04-25T23:01:58.155168","MEAN_MOTION":15.26338324,"ECCENTRICITY":0.00056887,"INCLINATION":97.4656,"RA_OF_ASC_NODE":301.9181,"ARG_OF_PERICENTER":166.1518,"MEAN_ANOMALY":193.9877,"EPHEMERIS_TYPE":0,"CLASSIFICATION_TYPE":"U","NORAD_CAT_ID":58702,"ELEMENT_SET_NO":999,"REV_AT_EPOCH":12780,"BSTAR":0.00025801878,"MEAN_MOTION_DOT":6.631e-5,"MEAN_MOTION_DDOT":0},{"OBJECT_NAME":"TIANMU-1 18","OBJECT_ID":"2024-004D","EPOCH":"2026-04-25T22:39:27.906336","MEAN_MOTION":15.26451667,"ECCENTRICITY":0.00045954,"INCLINATION":97.4674,"RA_OF_ASC_NODE":302.1271,"ARG_OF_PERICENTER":157.047,"MEAN_ANOMALY":203.0975,"EPHEMERIS_TYPE":0,"CLASSIFICATION_TYPE":"U","NORAD_CAT_ID":58703,"ELEMENT_SET_NO":999,"REV_AT_EPOCH":12780,"BSTAR":0.00025787936,"MEAN_MOTION_DOT":6.649e-5,"MEAN_MOTION_DDOT":0},{"OBJECT_NAME":"INSAT-3DS","OBJECT_ID":"2024-033A","EPOCH":"2026-04-25T22:33:19.838880","MEAN_MOTION":1.00270704,"ECCENTRICITY":0.00019104,"INCLINATION":0.0898,"RA_OF_ASC_NODE":86.6512,"ARG_OF_PERICENTER":298.1162,"MEAN_ANOMALY":249.5846,"EPHEMERIS_TYPE":0,"CLASSIFICATION_TYPE":"U","NORAD_CAT_ID":58990,"ELEMENT_SET_NO":999,"REV_AT_EPOCH":4654,"BSTAR":0,"MEAN_MOTION_DOT":-1.69e-6,"MEAN_MOTION_DDOT":0},{"OBJECT_NAME":"METEOR-M2 4","OBJECT_ID":"2024-039A","EPOCH":"2026-04-25T22:03:40.564800","MEAN_MOTION":14.22423888,"ECCENTRICITY":0.00064883,"INCLINATION":98.6975,"RA_OF_ASC_NODE":75.886,"ARG_OF_PERICENTER":329.8392,"MEAN_ANOMALY":30.2412,"EPHEMERIS_TYPE":0,"CLASSIFICATION_TYPE":"U","NORAD_CAT_ID":59051,"ELEMENT_SET_NO":999,"REV_AT_EPOCH":11183,"BSTAR":3.0947569e-5,"MEAN_MOTION_DOT":2.5e-7,"MEAN_MOTION_DDOT":0}]
