TIANMU-1 10             
1 57402U 23101D   26115.94223890  .00007600  00000+0  26979-3 0  9995
2 57402  97.2667 168.0375 0002934 341.5221  18.5912 15.29319097153655
FENGYUN 3F              
1 57490U 23111A   26115.90019326  .00000031  00000+0  35193-4 0  9996
2 57490  98.6861 186.8774 0000891 112.9797 247.1474 14.19929497141448
ARKTIKA-M 2             
1 58584U 23198A   26110.92958556  .00000217  00000+0  00000+0 0  9990
2 58584  63.2192 160.7194 6953303 267.0904  18.4710  2.00586979 17173
TIANMU-1 11             
1 58645U 23205A   26115.94724591  .00006395  00000+0  24794-3 0  9997
2 58645  97.3491 138.3375 0009058 176.7807 183.3492 15.26442198129555
TIANMU-1 12             
1 58646U 23205B   26115.98164449  .00006507  00000+0  25270-3 0  9997
2 58646  97.3478 138.1383 0007911 158.4398 201.7176 15.26388210129543
TIANMU-1 13             
1 58647U 23205C   26116.01094854  .00007027  00000+0  27215-3 0  9994
2 58647  97.3507 138.4268 0008758 142.5287 217.6564 15.26442139129541
TIANMU-1 14             
1 58648U 23205D   26115.93077779  .00006853  00000+0  26570-3 0  9991
2 58648  97.3442 137.5742 0009364 147.4453 212.7365 15.26412704129539
TIANMU-1 19             
1 58660U 23208A   26115.93985315  .00010376  00000+0  35152-3 0  9993
2 58660  97.4436 232.0252 0006265 133.2108 226.9657 15.30740125129336
TIANMU-1 20             
1 58661U 23208B   26115.95292912  .00010456  00000+0  34127-3 0  9990
2 58661  97.4377 232.6198 0008265 142.5810 217.6009 15.31928596129420
TIANMU-1 21             
1 58662U 23208C   26115.95221440  .00012334  00000+0  37569-3 0  9999
2 58662  97.4434 235.0804 0008263 137.5787 222.6095 15.34094429129558
TIANMU-1 22             
1 58663U 23208D   26115.90506530  .00008757  00000+0  30140-3 0  9993
2 58663  97.4431 231.9680 0004623 149.3350 210.8161 15.30284417129339
TIANMU-1 15             
1 58700U 24004A   26115.92779936  .00007178  00000+0  27801-3 0  9990
2 58700  97.4682 302.1272 0007547 161.7251 198.4260 15.26451792127801
TIANMU-1 16             
1 58701U 24004B   26115.97570201  .00006796  00000+0  26315-3 0  9994
2 58701  97.4626 301.4655 0005924 161.3712 198.7745 15.26490318127811
TIANMU-1 17             
1 58702U 24004C   26115.95970087  .00006631  00000+0  25802-3 0  9997
2 58702  97.4656 301.9181 0005688 166.1518 193.9877 15.26338324127808
TIANMU-1 18             
1 58703U 24004D   26115.94407299  .00006649  00000+0  25788-3 0  9999
2 58703  97.4674 302.1271 0004595 157.0470 203.0975 15.26451667127802
INSAT-3DS               
1 58990U 24033A   26115.93981295 -.00000169  00000+0  00000+0 0  9999
2 58990   0.0898  86.6512 0001910 298.1162 249.5846  1.00270704 46544
METEOR-M2 4             
1 59051U 24039A   26115.91921950  .00000025  00000+0  30948-4 0  9993
2 59051  98.6975  75.8860 0006488 329.8392  30.2412 14.22423888111830
